[
  {
    "OBJECT_NAME": "STARLINK-35329",
    "OBJECT_ID": "25224AC",
    "EPOCH": "2025-11-11T05:27:36.351648",
    "MEAN_MOTION": 15.49284754,
    "ECCENTRICITY": 0.0001357,
    "INCLINATION": 53.1601,
    "RA_OF_ASC_NODE": 201.8308,
    "ARG_OF_PERICENTER": 176.6292,
    "MEAN_ANOMALY": 183.4727,
    "EPHEMERIS_TYPE": 0,
    "CLASSIFICATION_TYPE": "U",
    "NORAD_CAT_ID": 65908,
    "ELEMENT_SET_NO": 999,
    "REV_AT_EPOCH": 672,
    "BSTAR": 0.00079314,
    "MEAN_MOTION_DOT": 0.00043874,
    "MEAN_MOTION_DDOT": 0.0,
    "TLE_LINE1": "1 65908U 25224AC  25315.22750407  .00043874  00000+0  79314-3 0  9998",
    "TLE_LINE2": "2 65908  53.1601 201.8308 0001357 176.6292 183.4727 15.49284754  6723",
    "COMMENT": "Grouped by shell and plane from TLE"
  },
  {
    "OBJECT_NAME": "STARLINK-35387",
    "OBJECT_ID": "25224AD",
    "EPOCH": "2025-11-11T04:07:30.623808",
    "MEAN_MOTION": 15.38088615,
    "ECCENTRICITY": 5.11e-05,
    "INCLINATION": 53.1611,
    "RA_OF_ASC_NODE": 202.1976,
    "ARG_OF_PERICENTER": 112.654,
    "MEAN_ANOMALY": 247.4518,
    "EPHEMERIS_TYPE": 0,
    "CLASSIFICATION_TYPE": "U",
    "NORAD_CAT_ID": 65909,
    "ELEMENT_SET_NO": 999,
    "REV_AT_EPOCH": 667,
    "BSTAR": 0.0,
    "MEAN_MOTION_DOT": -0.00334638,
    "MEAN_MOTION_DDOT": 0.0,
    "TLE_LINE1": "1 65909U 25224AD  25315.17188222 -.00334638  00000+0 -91793-2 0  9990",
    "TLE_LINE2": "2 65909  53.1611 202.1976 0000511 112.6540 247.4518 15.38088615  6676",
    "COMMENT": "Grouped by shell and plane from TLE"
  }
]